OBJECT_NAME,OBJECT_ID,EPOCH,MEAN_MOTION,ECCENTRICITY,INCLINATION,RA_OF_ASC_NODE,ARG_OF_PERICENTER,MEAN_ANOMALY,EPHEMERIS_TYPE,CLASSIFICATION_TYPE,NORAD_CAT_ID,ELEMENT_SET_NO,REV_AT_EPOCH,BSTAR,MEAN_MOTION_DOT,MEAN_MOTION_DDOT
STARLINK-11498 [DTC],2024-237K,2026-06-18T11:24:27.717984,15.70893934,.0001439,43.0010,169.0705,271.9634,88.1069,0,U,62276,999,8890,.12732E-2,.166613E-2,0
STARLINK-11484 [DTC],2024-237L,2026-06-18T22:20:40.798464,15.70854725,.00020647,43.0013,166.4732,293.2329,66.8321,0,U,62277,999,8897,.14071565E-2,.184285E-2,0
STARLINK-11487 [DTC],2024-237M,2026-06-18T16:52:40.441440,15.70855609,.00008285,43.0003,168.2185,12.4067,347.6821,0,U,62278,999,8893,.11463425E-2,.149412E-2,0
STARLINK-11499 [DTC],2024-237N,2026-06-18T17:09:15.573312,15.70900805,.00021131,43.0000,168.3089,280.3624,79.7006,0,U,62279,999,8886,.18058505E-2,.238655E-2,0
STARLINK-33548,2024-237P,2026-06-18T19:37:24.529728,15.27607952,.00060527,42.9948,354.3851,283.1022,76.9154,0,U,62280,999,8678,.67300226E-3,.18327E-3,0
STARLINK-33544,2024-237Q,2026-06-18T06:47:28.247712,15.27595454,.0003534,43.0064,8.5019,273.5200,86.5248,0,U,62281,999,8657,.49621E-3,.13425E-3,0
STARLINK-33560,2024-237R,2026-06-18T22:03:07.902144,15.27580790,.0001203,43.0026,4.6685,273.0894,86.9820,0,U,62282,999,8658,.25684463E-3,.6812E-4,0
STARLINK-33547,2024-237S,2026-06-18T19:31:51.194208,15.27599400,.00006641,43.0007,354.3516,291.2663,68.8118,0,U,62283,999,8678,.45057793E-3,.12165E-3,0
STARLINK-33563,2024-237T,2026-06-18T14:21:36.135360,15.27581921,.0001214,43.0030,6.5608,263.6890,96.3823,0,U,62284,999,8662,.4999E-3,.1352E-3,0
STARLINK-33550,2024-237U,2026-06-18T20:23:25.476288,15.27589112,.00014184,43.0033,5.0069,269.3683,90.7006,0,U,62285,999,8666,.62338934E-3,.16936E-3,0
STARLINK-33564,2024-237V,2026-06-18T12:52:59.971008,15.27608996,.000138,42.9957,6.9671,59.9925,300.1064,0,U,62286,999,8661,.66398E-3,.1807E-3,0
STARLINK-33546,2024-237W,2026-06-17T22:34:28.944192,15.27609459,.00015133,43.0026,10.2250,267.0697,92.9982,0,U,62287,999,8643,.65349839E-3,.1778E-3,0
STARLINK-33565,2024-237X,2026-06-18T18:49:18.066432,15.27590401,.00008154,42.9985,354.1302,261.4928,98.5832,0,U,62288,999,8678,.49718848E-3,.13449E-3,0
STARLINK-33549,2024-237Y,2026-06-18T06:41:55.220640,15.27577567,.000249,43.0053,8.4704,270.2562,89.8005,0,U,62289,999,8657,.54582E-3,.14787E-3,0
STARLINK-32648,2024-239A,2026-06-18T21:56:53.849760,15.34400730,.00019417,53.1607,70.8349,99.6943,260.4279,0,U,62301,999,8506,.26527417E-3,.8597E-4,0
STARLINK-32594,2024-239B,2026-06-18T22:30:19.619712,15.34386517,.00014556,53.1596,80.7779,96.6695,263.4474,0,U,62302,999,8492,.55298494E-3,.18345E-3,0
STARLINK-32621,2024-239C,2026-06-18T23:22:12.146016,15.30200479,.00012976,53.1602,70.4954,93.5203,266.5946,0,U,62303,999,8507,.8140543E-3,.23828E-3,0
STARLINK-32597,2024-239D,2026-06-18T22:00:01.999584,15.33541434,.00011664,53.1599,71.0093,86.0518,193.7336,0,U,62304,999,589,-.84920291E-4,-.3164E-4,0
STARLINK-32649,2024-239E,2026-06-18T22:00:51.651072,15.34391088,.00011514,53.1588,82.9326,105.3556,254.7573,0,U,62305,999,8489,.79783118E-3,.26668E-3,0
STARLINK-32633,2024-239F,2026-06-18T18:17:01.811328,15.34399381,.00016103,53.1612,84.0886,109.5914,250.5262,0,U,62306,999,8486,.54863235E-3,.18205E-3,0
STARLINK-32646,2024-239G,2026-06-18T23:16:07.273632,15.30192321,.00013198,53.1598,70.4716,88.6572,271.4580,0,U,62307,999,8507,.29506433E-3,.8388E-4,0
STARLINK-32706,2024-239H,2026-06-18T01:20:27.014208,15.34416207,.00014518,53.1614,87.5078,83.6312,276.4856,0,U,62308,999,8475,.70814311E-3,.23637E-3,0
STARLINK-32678,2024-239J,2026-06-18T22:56:51.224352,15.34325539,.00017103,53.1577,70.3840,153.1763,206.9329,0,U,62309,999,8507,.15769015E-2,.53154E-3,0
STARLINK-32696,2024-239K,2026-06-18T21:48:44.600256,15.34401626,.00012412,53.1583,82.8716,66.3451,293.7682,0,U,62310,999,8489,.8197751E-3,.27424E-3,0
STARLINK-32700,2024-239L,2026-06-18T22:00:01.999584,15.34389841,.00012783,53.1603,70.9637,69.8289,232.5548,0,U,62311,999,581,-.51914854E-3,-.17869E-3,0
STARLINK-32698,2024-239M,2026-06-18T22:09:57.294720,15.34410553,.00013412,53.1585,82.9718,121.4528,238.6606,0,U,62312,999,8489,.51112515E-3,.16938E-3,0
STARLINK-32634,2024-239N,2026-06-18T23:20:40.598304,15.30203944,.00011926,53.1598,70.4863,112.5150,247.5977,0,U,62313,999,8507,.57948433E-3,.16844E-3,0
STARLINK-32651,2024-239P,2026-06-18T22:00:01.999584,15.34398758,.00011244,53.1601,83.4310,90.4958,10.6049,0,U,62314,999,586,-.67558436E-3,-.23131E-3,0
STARLINK-32627,2024-239Q,2026-06-18T04:18:55.248768,15.34403681,.00010847,53.1604,86.8129,100.7424,259.3700,0,U,62315,999,8477,.72221659E-3,.24106E-3,0
STARLINK-32596,2024-239R,2026-06-18T21:54:47.845728,15.34397455,.00022378,53.1598,82.9048,141.8460,218.2701,0,U,62316,999,8489,.65719354E-3,.21892E-3,0
