STARLINK-11498 [DTC]    
1 62276U 24237K   26169.47532081  .00166613  00000+0  12732-2 0  9994
2 62276  43.0010 169.0705 0001439 271.9634  88.1069 15.70893934 88906
STARLINK-11484 [DTC]    
1 62277U 24237L   26169.93102776  .00184285  00000+0  14072-2 0  9994
2 62277  43.0013 166.4732 0002064 293.2329  66.8321 15.70854725 88970
STARLINK-11487 [DTC]    
1 62278U 24237M   26169.70324585  .00149412  00000+0  11463-2 0  9998
2 62278  43.0003 168.2185 0000828  12.4067 347.6821 15.70855609 88931
STARLINK-11499 [DTC]    
1 62279U 24237N   26169.71476358  .00238655  00000+0  18059-2 0  9992
2 62279  43.0000 168.3089 0002113 280.3624  79.7006 15.70900805 88866
STARLINK-33548          
1 62280U 24237P   26169.81764502  .00018327  00000+0  67300-3 0  9992
2 62280  42.9948 354.3851 0006052 283.1022  76.9154 15.27607952 86781
STARLINK-33544          
1 62281U 24237Q   26169.28296583  .00013425  00000+0  49621-3 0  9993
2 62281  43.0064   8.5019 0003534 273.5200  86.5248 15.27595454 86571
STARLINK-33560          
1 62282U 24237R   26169.91884146  .00006812  00000+0  25684-3 0  9997
2 62282  43.0026   4.6685 0001203 273.0894  86.9820 15.27580790 86589
STARLINK-33547          
1 62283U 24237S   26169.81378697  .00012165  00000+0  45058-3 0  9991
2 62283  43.0007 354.3516 0000664 291.2663  68.8118 15.27599400 86782
STARLINK-33563          
1 62284U 24237T   26169.59833490  .00013520  00000+0  49990-3 0  9999
2 62284  43.0030   6.5608 0001214 263.6890  96.3823 15.27581921 86625
STARLINK-33550          
1 62285U 24237U   26169.84960042  .00016936  00000+0  62339-3 0  9998
2 62285  43.0033   5.0069 0001418 269.3683  90.7006 15.27589112 86668
STARLINK-33564          
1 62286U 24237V   26169.53680522  .00018070  00000+0  66398-3 0  9997
2 62286  42.9957   6.9671 0001380  59.9925 300.1064 15.27608996 86610
STARLINK-33546          
1 62287U 24237W   26168.94061278  .00017780  00000+0  65350-3 0  9997
2 62287  43.0026  10.2250 0001513 267.0697  92.9982 15.27609459 86437
STARLINK-33565          
1 62288U 24237X   26169.78423688  .00013449  00000+0  49719-3 0  9997
2 62288  42.9985 354.1302 0000815 261.4928  98.5832 15.27590401 86787
STARLINK-33549          
1 62289U 24237Y   26169.27911135  .00014787  00000+0  54582-3 0  9991
2 62289  43.0053   8.4704 0002490 270.2562  89.8005 15.27577567 86574
STARLINK-32648          
1 62301U 24239A   26169.91451215  .00008597  00000+0  26527-3 0  9997
2 62301  53.1607  70.8349 0001941  99.6943 260.4279 15.34400730 85068
STARLINK-32594          
1 62302U 24239B   26169.93772708  .00018345  00000+0  55298-3 0  9992
2 62302  53.1596  80.7779 0001455  96.6695 263.4474 15.34386517 84924
STARLINK-32621          
1 62303U 24239C   26169.97375169  .00023828  00000+0  81405-3 0  9998
2 62303  53.1602  70.4954 0001297  93.5203 266.5946 15.30200479 85072
STARLINK-32597          
1 62304U 24239D   26169.91668981 -.00003164  00000+0 -84920-4 0  9999
2 62304  53.1599  71.0093 0001166  86.0518 193.7336 15.33541434  5898
STARLINK-32649          
1 62305U 24239E   26169.91726448  .00026668  00000+0  79783-3 0  9995
2 62305  53.1588  82.9326 0001151 105.3556 254.7573 15.34391088 84895
STARLINK-32633          
1 62306U 24239F   26169.76182652  .00018205  00000+0  54863-3 0  9992
2 62306  53.1612  84.0886 0001610 109.5914 250.5262 15.34399381 84862
STARLINK-32646          
1 62307U 24239G   26169.96952863  .00008388  00000+0  29506-3 0  9991
2 62307  53.1598  70.4716 0001319  88.6572 271.4580 15.30192321 85070
STARLINK-32706          
1 62308U 24239H   26169.05586822  .00023637  00000+0  70814-3 0  9992
2 62308  53.1614  87.5078 0001451  83.6312 276.4856 15.34416207 84755
STARLINK-32678          
1 62309U 24239J   26169.95614843  .00053154  00000+0  15769-2 0  9991
2 62309  53.1577  70.3840 0001710 153.1763 206.9329 15.34325539 85078
STARLINK-32696          
1 62310U 24239K   26169.90884954  .00027424  00000+0  81978-3 0  9997
2 62310  53.1583  82.8716 0001241  66.3451 293.7682 15.34401626 84892
STARLINK-32700          
1 62311U 24239L   26169.91668981 -.00017869  00000+0 -51915-3 0  9991
2 62311  53.1603  70.9637 0001278  69.8289 232.5548 15.34389841  5814
STARLINK-32698          
1 62312U 24239M   26169.92357980  .00016938  00000+0  51113-3 0  9991
2 62312  53.1585  82.9718 0001341 121.4528 238.6606 15.34410553 84891
STARLINK-32634          
1 62313U 24239N   26169.97269211  .00016844  00000+0  57948-3 0  9994
2 62313  53.1598  70.4863 0001192 112.5150 247.5977 15.30203944 85076
STARLINK-32651          
1 62314U 24239P   26169.91668981 -.00023131  00000+0 -67558-3 0  9993
2 62314  53.1601  83.4310 0001124  90.4958  10.6049 15.34398758  5868
STARLINK-32627          
1 62315U 24239Q   26169.17980612  .00024106  00000+0  72222-3 0  9995
2 62315  53.1604  86.8129 0001084 100.7424 259.3700 15.34403681 84770
STARLINK-32596          
1 62316U 24239R   26169.91305377  .00021892  00000+0  65719-3 0  9999
2 62316  53.1598  82.9048 0002237 141.8460 218.2701 15.34397455 84896
